<?xml version="1.0" encoding="UTF-8"?><kml xmlns="http://www.opengis.net/kml/2.2"><Document><Placemark><name>PCMC</name><description>Outer boundary of all divisions (PCMC)</description><ExtendedData><Data name="name"><value>PCMC</value></Data><Data name="description"><value>Outer boundary of all divisions (PCMC)</value></Data></ExtendedData><Polygon><outerBoundaryIs><LinearRing><coordinates>73.580858,18.6555118 73.5842912,18.6538854 73.5887544,18.6519336 73.5932176,18.6499819 73.5959642,18.6486807 73.5968225,18.6467289 73.5973375,18.6426626 73.5980242,18.6395721 73.5980242,18.634367 73.5985391,18.6291617 73.6055773,18.6237936 73.6158769,18.6171239 73.624975,18.6117555 73.6357897,18.6067122 73.6512392,18.6000418 73.6618822,18.5946728 73.6708086,18.5910933 73.6755167,18.5895063 73.6750018,18.5916215 73.67500341401087,18.591625069672162 73.6755167,18.5895165 73.6768042,18.5884589 73.6781775,18.5870759 73.6792933,18.5860183 73.682984,18.5848793 73.6862456,18.5839031 73.6874472,18.5820319 73.6881339,18.5786963 73.6883055,18.5771505 73.6886488,18.5731638 73.6892497,18.5708857 73.6905371,18.5674685 73.6920821,18.5643767 73.6943995,18.5615289 73.6962019,18.5586811 73.6974894,18.5563214 73.6979186,18.5547754 73.6989485,18.5536362 73.7006651,18.5534735 73.7027251,18.5525784 73.7056433,18.5534735 73.7075316,18.5546127 73.7089049,18.5559959 73.7102782,18.5565655 73.711909,18.5566469 73.7132823,18.5569723 73.7139689,18.5579488 73.7124239,18.5592506 73.7102782,18.5614475 73.7096774,18.5634003 73.7100207,18.5647835 73.7111365,18.5655158 73.7135397,18.5654344 73.7147414,18.5647021 73.7170588,18.5638071 73.7191187,18.564214 73.7217795,18.5650276 73.7236678,18.565109 73.7252127,18.5647835 73.7274443,18.564458 73.7291609,18.5647021 73.7315642,18.5663294 73.7331521,18.5643055 73.7338387,18.5620273 73.734697,18.5585692 73.73555448869838,18.556245017653946 73.735416,18.556155 73.734986,18.554243 73.736016,18.546838 73.737132,18.538375 73.740179,18.528976 73.745973,18.518152 73.750951,18.511966 73.758375,18.505252 73.763568,18.503949 73.769319,18.504926 73.776464,18.505699 73.779554,18.505537 73.783416,18.505537 73.784661,18.505272 73.785895,18.50572 73.787362,18.506696 73.788829,18.508975 73.78991,18.521509 73.79061,18.527979 73.790365,18.534367 73.788633,18.536036 73.786386,18.537297 73.782917,18.538009 73.782317,18.538122 73.781878,18.538356 73.781585,18.538762 73.781426,18.539234 73.781054,18.539934 73.780118,18.54084 73.779058,18.541695 73.778008,18.542384 73.776997,18.543205 73.774962,18.544898 73.77463,18.545672 73.774351,18.546506 73.773729,18.54812 73.77257,18.551387 73.77027124847399,18.557856825261293 73.7704237,18.557911 73.7686065,18.565601 73.7655166,18.5739 73.7619117,18.5826866 73.76041484229115,18.587226760280448 73.7611172,18.5873478 73.7635205,18.5875919 73.7649796,18.5871851 73.7666104,18.5869411 73.7687562,18.5862089 73.7709877,18.5865343 73.77227480633327,18.586785962133213 73.7722748,18.5867858 73.7746781,18.5874366 73.7764805,18.5867858 73.777768,18.5846706 73.7787979,18.5822299 73.7798279,18.5793824 73.7809437,18.5770231 73.7824887,18.5758027 73.7850636,18.57385 73.7872093,18.5722228 73.7886685,18.5711651 73.7890976,18.569782 73.787381,18.5667716 73.7871235,18.5649816 73.7882393,18.5634356 73.7937325,18.561971 73.7960499,18.5641679 73.7979382,18.566202 73.8011997,18.5677479 73.804118,18.5680734 73.8073796,18.5674225 73.810727,18.5671784 73.8141602,18.5672597 73.818795,18.5679106 73.8216274,18.5682361 73.8253182,18.5677479 73.8280647,18.5674225 73.829953,18.5676666 73.8312405,18.5689684 73.8326996,18.5712465 73.8340729,18.5724669 73.8322608,18.5722666 73.8332908,18.5728362 73.8356082,18.5738938 73.8388698,18.5739752 73.8411872,18.5726734 73.843503,18.57322 73.85019,18.574158 73.854146,18.582007 73.862729,18.583796 73.876977,18.571593 73.881191,18.575584 73.885482,18.583883 73.89664,18.594621 73.926179,18.596898 73.926596,18.602073 73.932874,18.603406 73.938367,18.609994 73.943673,18.613125 73.951804,18.623502 73.954675,18.629922 73.96059,18.636831 73.966561,18.63592 73.968493,18.633338 73.963258,18.625612 73.964202,18.619999 73.968951,18.618799 73.972585,18.620039 73.97845,18.62488 73.984372,18.637974 73.984801,18.64448 73.9834,18.648015 73.978851,18.649886 73.977992,18.654767 73.983256,18.659606 73.990123,18.662778 73.989621,18.666218 73.982999,18.676195 73.986003,18.679935 73.992612,18.67839 73.996131,18.672698 74.002525,18.678512 73.997418,18.688716 74.00203482513918,18.696409712486517 74.004618,18.698398 74.008352,18.699455 74.014961,18.700349 74.022256,18.701 74.031784,18.701813 74.04071,18.7023 74.043757,18.702138 74.044959,18.702626 74.045087,18.705674 74.04513,18.708926 74.046074,18.714495 74.04689,18.718153 74.048349,18.72425 74.049699,18.733573 74.051415,18.743652 74.052735,18.748021 74.053316,18.753848 74.051857,18.759212 74.048939,18.766933 74.04542,18.775059 74.043102,18.780504 74.038296,18.78733 74.036494,18.786842 74.032717,18.784729 74.029284,18.781073 74.026194,18.776278 74.023447,18.77254 74.016409,18.766445 74.007225,18.758887 74.004849,18.757151 74.002317,18.75707 73.997296,18.75646 73.993905,18.756217 73.988369,18.755607 73.980945,18.756704 73.968156,18.760036 73.957599,18.7628 73.944638,18.764913 73.933566,18.767026 73.924468,18.768244 73.91743,18.769951 73.91271,18.770845 73.905586,18.772145 73.899749,18.77117 73.896058,18.769464 73.892539,18.767594 73.888934,18.767026 73.887561,18.768244 73.889192,18.772795 73.889964,18.776859 73.891938,18.778971 73.895114,18.782953 73.896195,18.785654 73.894391,18.78967 73.890614,18.789508 73.886924,18.789101 73.885894,18.791214 73.882718,18.790158 73.880315,18.790076 73.87877,18.791783 73.874993,18.791377 73.871732,18.791052 73.8695,18.792433 73.869071,18.795358 73.865724,18.798771 73.863063,18.802427 73.86066,18.802833 73.859115,18.802346 73.85757,18.806652 73.854823,18.809089 73.848214,18.811039 73.845038,18.809252 73.84315,18.808439 73.842292,18.810877 73.842807,18.813558 73.841605,18.814452 73.838344,18.814533 73.834481,18.815345 73.829589,18.818108 73.825555,18.821032 73.824868,18.824282 73.819519,18.822895 73.814541,18.824844 73.811622,18.822895 73.809391,18.819808 73.8044404213169,18.819770254817424 73.804407,18.8198513 73.802458,18.8200973 73.797005,18.8174113 73.787593,18.8229973 73.784681,18.8234923 73.782282,18.8206613 73.774301,18.8255423 73.767497,18.8243403 73.763606,18.8250463 73.762359,18.8289363 73.759001,18.8295723 73.755031,18.8263913 73.745173,18.8312033 73.741299,18.8357973 73.744956,18.8455333 73.746001,18.8545543 73.747714,18.8640733 73.739447,18.8662453 73.736338,18.8693593 73.728481,18.8722993 73.720984,18.8728183 73.7151309,18.8792173 73.7109319,18.8835323 73.7074749,18.8880033 73.7021959,18.8942003 73.6957909,18.8987173 73.6873629,18.9037603 73.6804189,18.9054903 73.6698699,18.9090843 73.6646339,18.9131863 73.6589579,18.9149283 73.6562119,18.9183863 73.6508579,18.9232663 73.6475639,18.9274163 73.6386979,18.9356673 73.6304569,18.9406263 73.6193459,18.9458913 73.6107059,18.9459483 73.6076779,18.9414373 73.6061629,18.9395383 73.6017389,18.9375923 73.5965269,18.9332923 73.5962689,18.9285463 73.5958009,18.9190393 73.5982129,18.9164493 73.6002419,18.9131183 73.6049979,18.9109833 73.6130049,18.9100383 73.6173009,18.9036173 73.6177119,18.8957693 73.6197659,18.8889043 73.6244629,18.8888893 73.6310509,18.8895923 73.6376589,18.8827043 73.6421919,18.8812813 73.6469379,18.8767603 73.6486209,18.8690593 73.6511139,18.8635863 73.6569879,18.8617303 73.6611229,18.8617293 73.6646549,18.8567113 73.6691749,18.8540443 73.6740309,18.8499963 73.6764879,18.8454613 73.6797959,18.8406103 73.6839219,18.8407653 73.6925419,18.8356133 73.6976589,18.8337353 73.7051019,18.8318773 73.7146059,18.8270903 73.717586,18.8252983 73.720123,18.8227673 73.720122,18.8206473 73.721763,18.8171153 73.72639,18.8133063 73.729352,18.8089193 73.730987,18.8079313 73.739365,18.8049023 73.73936023078916,18.8048229858128 73.730988,18.8078499 73.7128068,18.8092829 73.6608425,18.8212406 73.6613575,18.817016 73.6517444,18.8175035 73.6417881,18.8103539 73.6416164,18.7936163 73.6467663,18.7853281 73.6526027,18.7832154 73.6522594,18.7759019 73.6477962,18.7755768 73.6520878,18.7724888 73.6563793,18.7708635 73.6551777,18.7658249 73.6548343,18.7620053 73.6523453,18.7594046 73.6521736,18.7556661 73.6547485,18.752659 73.6575809,18.7506271 73.6581388,18.7495705 73.6584821,18.7484733 73.6577097,18.7468884 73.6568514,18.7446939 73.6561004,18.7437389 73.6556926,18.7424587 73.6544481,18.7401423 73.6535469,18.7384862 73.6525008,18.737079 73.651766,18.7358039 73.6510791,18.7353365 73.6501459,18.735621 73.6489335,18.7357835 73.64741,18.7362103 73.6462299,18.7368199 73.6453286,18.7379172 73.6435691,18.738852 73.6416379,18.7399086 73.6394062,18.7411278 73.6367026,18.7418593 73.6348573,18.7446228 73.6312524,18.7492556 73.6273042,18.7506729 73.6245147,18.7513587 73.623077,18.7513536 73.6218968,18.7510234 73.6205235,18.7499465 73.6198449,18.7494461 73.6197242,18.7487832 73.6204833,18.7481406 73.6213134,18.7476161 73.6225727,18.7469697 73.6239192,18.746416 73.6252441,18.7458419 73.62554093125489,18.745525413307096 73.625244,18.7458318 73.622573,18.7469598 73.621313,18.7476058 73.620483,18.7481308 73.619724,18.7487728 73.6170484,18.7485807 73.6139585,18.7475241 73.6109545,18.7464675 73.608122,18.7456547 73.604088,18.7454922 73.5997106,18.7455734 73.5973932,18.7425661 73.5947325,18.7393149 73.5926725,18.7352508 73.5885956,18.7285042 73.5866215,18.7238709 73.5849048,18.7200503 73.5842182,18.7140347 73.5830038,18.7070615 73.5831754,18.7015333 73.5834329,18.6990943 73.5836904,18.696574 73.5849779,18.6946227 73.5870378,18.6927528 73.5884969,18.6933219 73.5902136,18.6949479 73.5908144,18.6955171 73.591501,18.6946227 73.5924452,18.6925902 73.5942476,18.6914519 73.5959642,18.6914519 73.5966509,18.6936471 73.5979383,18.6959236 73.5993974,18.6956797 73.6003845,18.6947853 73.6011141,18.6927934 73.6022728,18.6913706 73.604676,18.6908015 73.6064785,18.6911267 73.6084526,18.6915332 73.60974,18.6921836 73.6107271,18.6933219 73.6116712,18.6942162 73.6125295,18.6939723 73.6118429,18.6923462 73.6099546,18.6887689 73.6084097,18.6858419 73.6046331,18.6803129 73.6024015,18.6772231 73.5977667,18.6733202 73.5919302,18.6700677 73.587982,18.6679535 73.5862653,18.6663272 73.5836904,18.6632371 73.5860937,18.6592525 73.5841196,18.6579514 73.5826605,18.6566503 73.580858,18.6555118</coordinates></LinearRing></outerBoundaryIs><innerBoundaryIs><LinearRing><coordinates>73.62850526555647,18.74246668315206 73.6291376,18.741824 73.6310351,18.7393964 73.6335241,18.7372831 73.6380732,18.7349259 73.6418497,18.7338692 73.6463988,18.7306991 73.6488879,18.7289108 73.6609042,18.7216762 73.6677705,18.7174491 73.6738217,18.7124903 73.6785424,18.7085882 73.6818898,18.7070435 73.6882412,18.7054176 73.6916315,18.7064338 73.6959475,18.7085401 73.7013333,18.7104302 73.7061613,18.710918 73.7116791,18.7110393 73.71173491094463,18.711071827206748 73.711679,18.7110288 73.706161,18.7109078 73.701333,18.7104198 73.695948,18.7085298 73.691632,18.7064238 73.688241,18.7054078 73.68189,18.7070338 73.678542,18.7085778 73.66777,18.7174388 73.648888,18.7289008 73.64185,18.7338588 73.638073,18.7349158 73.633524,18.7372728 73.631035,18.7393858 73.629138,18.7418138 73.62850526555647,18.74246668315206</coordinates></LinearRing></innerBoundaryIs><innerBoundaryIs><LinearRing><coordinates>73.6758815,18.624586 73.67588187778915,18.624592875606403 73.6761819,18.6219528 73.67618170299568,18.621944333559348 73.6758815,18.624586</coordinates></LinearRing></innerBoundaryIs><innerBoundaryIs><LinearRing><coordinates>73.67588228120832,18.624600217668615 73.6761235,18.6289903 73.67613102214683,18.62899801797011 73.67670084429825,18.62880999776203 73.67588228120832,18.624600217668615</coordinates></LinearRing></innerBoundaryIs><innerBoundaryIs><LinearRing><coordinates>73.6760532,18.6164116 73.67605342290248,18.616421179437673 73.6767398,18.6145103 73.6769115,18.6121514 73.6771261,18.6110126 73.6771904,18.6071488 73.6774479,18.6056032 73.67744715952153,18.60559744459618 73.6771904,18.6071386 73.6771261,18.6110024 73.6769115,18.6121412 73.6767398,18.6145001 73.6760532,18.6164116</coordinates></LinearRing></innerBoundaryIs><innerBoundaryIs><LinearRing><coordinates>73.6767710161067,18.59882385199643 73.6769915,18.60212 73.67738532107391,18.605116802343787 73.6770188,18.602268 73.6767710161067,18.59882385199643</coordinates></LinearRing></innerBoundaryIs><innerBoundaryIs><LinearRing><coordinates>73.68282267206682,18.632932307673336 73.6838783354447,18.633339856327197 73.6830751,18.6330249 73.68282267206682,18.632932307673336</coordinates></LinearRing></innerBoundaryIs><innerBoundaryIs><LinearRing><coordinates>73.68626707907167,18.63436247091526 73.6890507,18.6358348 73.68923526795834,18.635862200009974 73.6885682,18.6355462 73.68626707907167,18.63436247091526</coordinates></LinearRing></innerBoundaryIs><innerBoundaryIs><LinearRing><coordinates>73.6976026,18.6201756 73.7042116,18.6185488 73.701465,18.6191995 73.6976026,18.6201756</coordinates></LinearRing></innerBoundaryIs><innerBoundaryIs><LinearRing><coordinates>73.7021470476983,18.63735696352247 73.70690922956172,18.63670190064095 73.7052194,18.6368475 73.7021470476983,18.63735696352247</coordinates></LinearRing></innerBoundaryIs><innerBoundaryIs><LinearRing><coordinates>73.7097049,18.7242897 73.7105633,18.7274599 73.7122799,18.7307114 73.7134815,18.7338002 73.7159706,18.7335563 73.7175156,18.7330686 73.71780082126965,18.733303483854954 73.717516,18.7330588 73.715971,18.7335458 73.713482,18.7337898 73.71228,18.7307008 73.710563,18.7274498 73.7097065940128,18.724285689301354 73.7097049,18.7242897</coordinates></LinearRing></innerBoundaryIs><innerBoundaryIs><LinearRing><coordinates>73.71220181547133,18.63686798973287 73.7127615,18.6369531 73.71396818425367,18.637047323974492 73.71220181547133,18.63686798973287</coordinates></LinearRing></innerBoundaryIs><innerBoundaryIs><LinearRing><coordinates>73.7129806321634,18.717521293254155 73.71398223543568,18.715885235134632 73.7131382,18.7172175 73.7129806321634,18.717521293254155</coordinates></LinearRing></innerBoundaryIs><innerBoundaryIs><LinearRing><coordinates>73.71434481495767,18.713080322686757 73.7144249982215,18.7131522703014 73.714426,18.7131428 73.71434481495767,18.713080322686757</coordinates></LinearRing></innerBoundaryIs><innerBoundaryIs><LinearRing><coordinates>73.72096884547575,18.736025065625512 73.7212063,18.7362387 73.7228371,18.7372953 73.7258411,18.7376204 73.729446,18.7371328 73.7338234,18.7373766 73.7387011765505,18.737700734896993 73.738716,18.7376918 73.733823,18.7373668 73.729446,18.7371228 73.725841,18.7376098 73.722837,18.7372848 73.721206,18.7362288 73.72096884547575,18.736025065625512</coordinates></LinearRing></innerBoundaryIs><innerBoundaryIs><LinearRing><coordinates>73.733812,18.7661599 73.7338206302813,18.766229491726975 73.735814,18.7637853 73.738632,18.7599943 73.743159,18.7559913 73.748729,18.7532493 73.75244,18.7531083 73.75243718600645,18.753027041117544 73.74873,18.7531679 73.7431599,18.7559099 73.738633,18.7599129 73.733812,18.7661599</coordinates></LinearRing></innerBoundaryIs><innerBoundaryIs><LinearRing><coordinates>73.73751625727859,18.5572862574596 73.7375547,18.557302 73.7381557,18.557231 73.7389497,18.556722 73.7402267,18.556112 73.7441537,18.555125 73.7454517,18.554963 73.7463957,18.554769 73.7484127,18.554118 73.7490237,18.554068 73.7519207,18.553061 73.7522923,18.5530259 73.75230502202258,18.553026981865717 73.752189,18.553 73.751749,18.553061 73.750752,18.553417 73.748852,18.554068 73.748241,18.554118 73.747447,18.554373 73.746224,18.554769 73.74528,18.554963 73.743982,18.555125 73.742254,18.555532 73.741096,18.555827 73.740055,18.556112 73.738778,18.556722 73.737984,18.557231 73.73751625727859,18.5572862574596</coordinates></LinearRing></innerBoundaryIs><innerBoundaryIs><LinearRing><coordinates>73.7377716,18.7382707 73.7424923,18.7381894 73.7460114,18.7385145 73.7547661,18.7385145 73.7585426,18.7390022 73.7606299,18.7402049 73.757654,18.7416859 73.7523839,18.7439349 73.7518649,18.7459729 73.75187055894745,18.74602854444145 73.752383,18.7440163 73.757653,18.7417673 73.760629,18.7402863 73.765055,18.7366863 73.766763,18.7354343 73.76825,18.7352773 73.770785,18.7361123 73.772823,18.7366863 73.77295083813034,18.736510942564642 73.772823,18.7366758 73.770785,18.7361018 73.76825,18.7352668 73.766763,18.7354238 73.765055,18.7366758 73.76063,18.7401948 73.758543,18.7389918 73.754766,18.7385038 73.746011,18.7385038 73.742492,18.7381788 73.73778850202437,18.738260513312287 73.7377716,18.7382707</coordinates></LinearRing></innerBoundaryIs><innerBoundaryIs><LinearRing><coordinates>73.74820104418927,18.604685765942904 73.7486618,18.6048408 73.75039199640354,18.605075121428154 73.74820104418927,18.604685765942904</coordinates></LinearRing></innerBoundaryIs><innerBoundaryIs><LinearRing><coordinates>73.74980783044275,18.643165443356065 73.749809,18.6431599 73.74980876891284,18.643152890894974 73.74980783044275,18.643165443356065</coordinates></LinearRing></innerBoundaryIs><innerBoundaryIs><LinearRing><coordinates>73.74985180684051,18.64064012453693 73.74985188994864,18.640638942909625 73.74985182754735,18.64063891053825 73.74985180684051,18.64064012453693</coordinates></LinearRing></innerBoundaryIs><innerBoundaryIs><LinearRing><coordinates>73.75024956666667,18.640513168220064 73.7503669,18.6404761 73.7510536,18.6409641 73.7516115,18.6412487 73.75161152151179,18.641248702914545 73.750367,18.640476 73.75024956666667,18.640513168220064</coordinates></LinearRing></innerBoundaryIs><innerBoundaryIs><LinearRing><coordinates>73.75049242734843,18.605092969074043 73.7535003,18.6059528 73.7507537,18.6051394 73.75049242734843,18.605092969074043</coordinates></LinearRing></innerBoundaryIs><innerBoundaryIs><LinearRing><coordinates>73.75161371425061,18.641249 73.7522123,18.6413301 73.7528131,18.6413301 73.75315513476659,18.641249 73.75161371425061,18.641249</coordinates></LinearRing></innerBoundaryIs><innerBoundaryIs><LinearRing><coordinates>73.752641,18.633522 73.752641,18.635556 73.75265097117003,18.635623707148728 73.7526414,18.6355557 73.7526414,18.6335224 73.75264256008013,18.63351873594885 73.752641,18.633522</coordinates></LinearRing></innerBoundaryIs><innerBoundaryIs><LinearRing><coordinates>73.75293159957275,18.657435748937022 73.75302451372917,18.658441078606074 73.7529848,18.6578388 73.75293159957275,18.657435748937022</coordinates></LinearRing></innerBoundaryIs><innerBoundaryIs><LinearRing><coordinates>73.752985,18.6686438 73.7529852084658,18.66865129022457 73.7532422,18.6669464 73.7533281,18.665564 73.7532422,18.6641003 73.753371,18.6613355 73.753371,18.6601158 73.75337073564972,18.660113964120168 73.753242,18.6640898 73.753242,18.6669358 73.752985,18.6686438</coordinates></LinearRing></innerBoundaryIs><innerBoundaryIs><LinearRing><coordinates>73.75298577002813,18.66867146728972 73.7530706,18.671719427906975 73.7530706,18.670199 73.75298577002813,18.66867146728972</coordinates></LinearRing></innerBoundaryIs><innerBoundaryIs><LinearRing><coordinates>73.75303673091737,18.658520214584716 73.75336645750951,18.66008425296789 73.7532422,18.6592213 73.75303673091737,18.658520214584716</coordinates></LinearRing></innerBoundaryIs><innerBoundaryIs><LinearRing><coordinates>73.75313846591035,18.638933938424326 73.753156,18.639053 73.753156,18.64124879484416 73.7531564,18.6412487 73.7531564,18.6390529 73.75313846591035,18.638933938424326</coordinates></LinearRing></innerBoundaryIs><innerBoundaryIs><LinearRing><coordinates>73.7535003,18.6059528 73.7593368,18.5904966 73.7562469,18.5986316 73.7535003,18.6059528</coordinates></LinearRing></innerBoundaryIs><innerBoundaryIs><LinearRing><coordinates>73.7535189617522,18.553602923971013 73.7536267,18.55361 73.7540877,18.553559 73.75568487251289,18.552847612859775 73.755537,18.552837 73.753916,18.553559 73.7535189617522,18.553602923971013</coordinates></LinearRing></innerBoundaryIs><innerBoundaryIs><LinearRing><coordinates>73.754338,18.7299788 73.75433901142446,18.729978803474832 73.75434079084533,18.729943326271226 73.754338,18.7299788</coordinates></LinearRing></innerBoundaryIs><innerBoundaryIs><LinearRing><coordinates>73.75470040370573,18.62921324758656 73.75470131908402,18.62921191756855 73.754701,18.629212 73.75470040370573,18.62921324758656</coordinates></LinearRing></innerBoundaryIs><innerBoundaryIs><LinearRing><coordinates>73.75693187492116,18.69700871225391 73.7569615,18.696636 73.7592795,18.69688 73.7593500465471,18.696970419494903 73.75928,18.6968698 73.756962,18.6966258 73.75693187492116,18.69700871225391</coordinates></LinearRing></innerBoundaryIs><innerBoundaryIs><LinearRing><coordinates>73.7574667823376,18.628209218805118 73.7583921,18.6276664 73.75947833925827,18.626865835549577 73.758392,18.627666 73.7574667823376,18.628209218805118</coordinates></LinearRing></innerBoundaryIs><innerBoundaryIs><LinearRing><coordinates>73.7586496,18.6457217 73.7611387,18.6479175 73.7595937,18.646535 73.7586496,18.6457217</coordinates></LinearRing></innerBoundaryIs><innerBoundaryIs><LinearRing><coordinates>73.76188142844204,18.70060666393874 73.7619395,18.700701 73.7622835,18.711839 73.7646005,18.712977 73.76469208941202,18.712897503947232 73.7646,18.7129668 73.762284,18.7118288 73.76194,18.7006908 73.76188142844204,18.70060666393874</coordinates></LinearRing></innerBoundaryIs><innerBoundaryIs><LinearRing><coordinates>73.76259477035588,18.625471603978387 73.7625978,18.6254704 73.763401147379,18.6251984947245 73.762598,18.62547 73.76259477035588,18.625471603978387</coordinates></LinearRing></innerBoundaryIs><innerBoundaryIs><LinearRing><coordinates>73.76428869746954,18.67227990624756 73.76881258394407,18.674084097276136 73.7661169,18.6728823 73.76428869746954,18.67227990624756</coordinates></LinearRing></innerBoundaryIs><innerBoundaryIs><LinearRing><coordinates>73.7662885,18.624047 73.7674043,18.6237623 73.76886304209154,18.623681019942403 73.768863,18.623681 73.767404,18.623762 73.7662885,18.624047</coordinates></LinearRing></innerBoundaryIs><innerBoundaryIs><LinearRing><coordinates>73.77106174672191,18.624877379039727 73.7717817,18.6253891 73.7732408,18.6262024 73.7747858,18.6269344 73.77573483721035,18.627159288368954 73.774786,18.626934 73.773241,18.626202 73.771782,18.625389 73.77106174672191,18.624877379039727</coordinates></LinearRing></innerBoundaryIs><innerBoundaryIs><LinearRing><coordinates>73.77175243222916,18.674701308976903 73.7720069,18.6747508 73.77424834972275,18.674381833423926 73.77175243222916,18.674701308976903</coordinates></LinearRing></innerBoundaryIs><innerBoundaryIs><LinearRing><coordinates>73.7739274,18.6481615 73.7764165,18.6489341 73.77767394369566,18.6490617384095 73.776159,18.6488121 73.7739274,18.6481615</coordinates></LinearRing></innerBoundaryIs><innerBoundaryIs><LinearRing><coordinates>73.77468863184342,18.734269919374128 73.777781,18.7316773 73.782134,18.7293293 73.784834,18.7251033 73.786542,18.7197803 73.787148,18.7162323 73.798888,18.7027213 73.804838,18.7004253 73.807484,18.7035043 73.810735,18.7035043 73.813104,18.6998513 73.813545,18.6898303 73.814881,18.6861873 73.817966,18.6843083 73.819595,18.6846083 73.81961125718378,18.68466232174668 73.8195735,18.684527 73.8179445,18.684227 73.8148595,18.686106 73.8135235,18.689749 73.8130825,18.69977 73.8107135,18.703423 73.8074625,18.703423 73.8048165,18.700344 73.7988665,18.70264 73.7871265,18.716151 73.7865205,18.719699 73.7848125,18.725022 73.7821125,18.729248 73.78208106464132,18.72925514980056 73.777781,18.7316668 73.775011,18.7338542 73.77468863184342,18.734269919374128</coordinates></LinearRing></innerBoundaryIs><innerBoundaryIs><LinearRing><coordinates>73.77489550527808,18.601018685520717 73.775536,18.602649 73.77645368112651,18.60418328741767 73.7755364,18.6026491 73.77489550527808,18.601018685520717</coordinates></LinearRing></innerBoundaryIs><innerBoundaryIs><LinearRing><coordinates>73.77676,18.624982 73.77676,18.62498207776742 73.77684831418877,18.624697500678593 73.77676,18.624982</coordinates></LinearRing></innerBoundaryIs><innerBoundaryIs><LinearRing><coordinates>73.7769959124979,18.60508985370367 73.776996,18.60509 73.77781390424028,18.605791255300353 73.7769959124979,18.60508985370367</coordinates></LinearRing></innerBoundaryIs><innerBoundaryIs><LinearRing><coordinates>73.7782360078386,18.62217934451298 73.7784765,18.6216476 73.7795923,18.6201022 73.78053159051288,18.61936036205149 73.779592,18.620102 73.778476,18.621648 73.7782360078386,18.62217934451298</coordinates></LinearRing></innerBoundaryIs><innerBoundaryIs><LinearRing><coordinates>73.77939977159234,18.60747279053078 73.781544,18.610458 73.78383829526894,18.613066814193186 73.7815445,18.6104582 73.77939977159234,18.60747279053078</coordinates></LinearRing></innerBoundaryIs><innerBoundaryIs><LinearRing><coordinates>73.78062209354056,18.619288884080113 73.7806222,18.6192888 73.781738,18.617906 73.78062209354056,18.619288884080113</coordinates></LinearRing></innerBoundaryIs><innerBoundaryIs><LinearRing><coordinates>73.7839699349039,18.615466077082505 73.7851923,18.6164774 73.7841194,18.6133865 73.78411902586855,18.613386074519735 73.785192,18.616477 73.78397,18.615466 73.7839699349039,18.615466077082505</coordinates></LinearRing></innerBoundaryIs><innerBoundaryIs><LinearRing><coordinates>73.7844275,18.670008 73.7885475,18.669358 73.8015935,18.667243 73.7844275,18.670008</coordinates></LinearRing></innerBoundaryIs><innerBoundaryIs><LinearRing><coordinates>73.78550122095417,18.69723891035125 73.7863155,18.696636 73.7875175,18.688344 73.78751660626394,18.6883434146917 73.786316,18.6966258 73.78550122095417,18.69723891035125</coordinates></LinearRing></innerBoundaryIs><innerBoundaryIs><LinearRing><coordinates>73.7921517,18.6256797 73.7929563,18.6253035 73.7941579,18.6247341 73.7921517,18.6256797</coordinates></LinearRing></innerBoundaryIs><innerBoundaryIs><LinearRing><coordinates>73.79559275779971,18.623374466036417 73.7956171,18.6233514 73.7964754,18.6222941 73.79559275779971,18.623374466036417</coordinates></LinearRing></innerBoundaryIs><innerBoundaryIs><LinearRing><coordinates>73.7985353,18.6402686 73.7992649,18.6441316 73.7991361,18.643359 73.7985353,18.6402686</coordinates></LinearRing></innerBoundaryIs><innerBoundaryIs><LinearRing><coordinates>73.7992475,18.6458844 73.7992475,18.6471856 73.7992649,18.6441316 73.7992475,18.6458844</coordinates></LinearRing></innerBoundaryIs><innerBoundaryIs><LinearRing><coordinates>73.7993078,18.6010638 73.801711,18.6015519 73.8036851,18.6018773 73.7993078,18.6010638</coordinates></LinearRing></innerBoundaryIs><innerBoundaryIs><LinearRing><coordinates>73.805821,18.7906183 73.80608242559465,18.791573114227944 73.80583871093667,18.790607194173216 73.805821,18.7906183</coordinates></LinearRing></innerBoundaryIs><innerBoundaryIs><LinearRing><coordinates>73.8085775,18.6506376 73.8107662,18.6556389 73.809822,18.6533619 73.8092212,18.6520201 73.8085775,18.6506376</coordinates></LinearRing></innerBoundaryIs><innerBoundaryIs><LinearRing><coordinates>73.80886232194713,18.802590743036806 73.808902,18.8028293 73.81022714243262,18.80485987141534 73.810247,18.804809 73.808902,18.802748 73.80886232194713,18.802590743036806</coordinates></LinearRing></innerBoundaryIs><innerBoundaryIs><LinearRing><coordinates>73.8167254,18.6045638 73.8170688,18.6085497 73.8168971,18.605784 73.8167254,18.6045638</coordinates></LinearRing></innerBoundaryIs><innerBoundaryIs><LinearRing><coordinates>73.82059308667506,18.68693954910488 73.820991,18.687654 73.82061468373047,18.686948993297534 73.82059308667506,18.68693954910488</coordinates></LinearRing></innerBoundaryIs><innerBoundaryIs><LinearRing><coordinates>73.820991,18.687654 73.823377,18.6929113 73.824806,18.6975113 73.826569,18.6998073 73.828718,18.7039293 73.832245,18.7083673 73.834283,18.7148373 73.835329,18.7191683 73.83581998454132,18.725158113426495 73.835825,18.725138 73.835329,18.719087 73.834283,18.714756 73.832245,18.708286 73.828718,18.703848 73.826569,18.699726 73.824806,18.69743 73.823377,18.69283 73.820991,18.687654</coordinates></LinearRing></innerBoundaryIs><innerBoundaryIs><LinearRing><coordinates>73.8239352,18.5747074 73.8261668,18.5753583 73.8277976,18.5756838 73.8259045,18.5752673 73.8239352,18.5747074</coordinates></LinearRing></innerBoundaryIs><innerBoundaryIs><LinearRing><coordinates>73.8252227,18.5930124 73.8267676,18.5915481 73.8274543,18.5905718 73.8252227,18.5930124</coordinates></LinearRing></innerBoundaryIs><innerBoundaryIs><LinearRing><coordinates>73.8271109,18.6247363 73.8276259,18.6232723 73.8279693,18.6219709 73.8271109,18.6247363</coordinates></LinearRing></innerBoundaryIs><innerBoundaryIs><LinearRing><coordinates>73.8288276,18.6330324 73.8298575,18.6445811 73.8293425,18.6387255 73.8288276,18.6330324</coordinates></LinearRing></innerBoundaryIs><innerBoundaryIs><LinearRing><coordinates>73.832692,18.7360173 73.83342613732627,18.73747457850813 73.8327079121355,18.73596934807922 73.832692,18.7360173</coordinates></LinearRing></innerBoundaryIs><innerBoundaryIs><LinearRing><coordinates>73.83696577429033,18.74489282188653 73.837673,18.7464563 73.839486,18.7517203 73.844884,18.7575943 73.84616030431125,18.760766742989354 73.846173,18.760717 73.844884,18.757513 73.839486,18.751639 73.837673,18.746375 73.83696577429033,18.74489282188653</coordinates></LinearRing></innerBoundaryIs><innerBoundaryIs><LinearRing><coordinates>73.916213,18.717584 73.922392,18.718234 73.929431,18.719372 73.922187,18.718183 73.916213,18.717584</coordinates></LinearRing></innerBoundaryIs><innerBoundaryIs><LinearRing><coordinates>73.973033,18.716771 73.979384,18.716608 73.984019,18.717096 73.979225,18.71651 73.973033,18.716771</coordinates></LinearRing></innerBoundaryIs></Polygon></Placemark></Document></kml>